*******************************************************************************
Ephemeris / WWW_USER Mon Jul 15 19:20:56 2024 Pasadena, USA      / Horizons    
*******************************************************************************
Target body name: (2019 AS11)                     {source: JPL#3}
Center body name: Earth (399)                     {source: DE441}
Center-site name: Gemini South Obs., Cerro Pachon
*******************************************************************************
Start time      : A.D. 2018-Nov-27 23:36:00.0000 UT      
Stop  time      : A.D. 2018-Nov-28 09:25:00.0000 UT      
Step-size       : 1 minutes
*******************************************************************************
Target pole/equ : undefined
Target radii    : undefined                                                    
Center geodetic : 289.2634, -30.2406227, 2.71233  {E-lon(deg),Lat(deg),Alt(km)}
Center cylindric: 289.2634,5517.21435,-3194.81213 {E-lon(deg),Dxy(km),Dz(km)}
Center pole/equ : ITRF93                          {East-longitude positive}
Center radii    : 6378.137, 6378.137, 6356.752 km {Equator_a, b, pole_c}       
Target primary  : Sun
Vis. interferer : MOON (R_eq= 1737.400) km        {source: DE441}
Rel. light bend : Sun                             {source: DE441}
Rel. lght bnd GM: 1.3271E+11 km^3/s^2                                          
Small-body perts: Yes                             {source: SB441-N16}
Atmos refraction: NO (AIRLESS)
RA format       : HMS
Time format     : CAL 
Calendar mode   : Mixed Julian/Gregorian
RTS-only print  : NO       
EOP file        : eop.240715.p241008                                           
EOP coverage    : DATA-BASED 1962-JAN-20 TO 2024-JUL-15. PREDICTS-> 2024-OCT-07
Units conversion: 1 au= 149597870.700 km, c= 299792.458 km/s, 1 day= 86400.0 s 
Table cut-offs 1: Elevation (-90.0deg=NO ),Airmass (>38.000=NO), Daylight (YES)
Table cut-offs 2: Solar elongation (  0.0,180.0=NO ),Local Hour Angle( 0.0=NO )
Table cut-offs 3: RA/DEC angular rate (     0.0=NO )                           
*******************************************************************************
Initial IAU76/J2000 heliocentric ecliptic osculating elements (au, days, deg.):
  EPOCH=  2458497.5 ! 2019-Jan-14.00 (TDB)         Residual RMS= .087899       
   EC= .1148313279028816   QR= .9946661968961306   TP= 2458526.093433633       
   OM= 299.8828960483019   W=  203.050931799211    IN= 7.281527766683049       
  Equivalent ICRF heliocentric cartesian coordinates (au, au/d):
   X=-3.982431103506237E-01  Y= 8.438985356712057E-01  Z= 3.820551439764541E-01
  VX=-1.601846206933958E-02 VY=-6.309373484980013E-03 VZ=-5.215303828559489E-03
Asteroid physical parameters (km, seconds, rotational period in hours):        
   GM= n.a.                RAD= n.a.               ROTPER= n.a.                
   H= 26.8                 G= .150                 B-V= n.a.                   
                           ALBEDO= n.a.            STYP= n.a.                  
*******************************************************************************
 Date__(UT)__HR:MN     R.A._________(ICRF)_________DEC
******************************************************
$$SOE
 2018-Nov-28 01:39     06 59 55.384336 +70 38 50.15644
 2018-Nov-28 01:40     06 59 55.514291 +70 38 50.99826
 2018-Nov-28 01:41     06 59 55.644046 +70 38 51.83998
 2018-Nov-28 01:42     06 59 55.773600 +70 38 52.68158
 2018-Nov-28 01:43     06 59 55.902954 +70 38 53.52307
 2018-Nov-28 01:44     06 59 56.032107 +70 38 54.36444
 2018-Nov-28 01:45     06 59 56.161061 +70 38 55.20569
 2018-Nov-28 01:46     06 59 56.289815 +70 38 56.04680
 2018-Nov-28 01:47     06 59 56.418368 +70 38 56.88779
 2018-Nov-28 01:48     06 59 56.546722 +70 38 57.72864
 2018-Nov-28 01:49     06 59 56.674877 +70 38 58.56935
 2018-Nov-28 01:50     06 59 56.802831 +70 38 59.40992
 2018-Nov-28 01:51     06 59 56.930586 +70 39 00.25033
 2018-Nov-28 01:52     06 59 57.058142 +70 39 01.09060
 2018-Nov-28 01:53     06 59 57.185499 +70 39 01.93071
 2018-Nov-28 01:54     06 59 57.312656 +70 39 02.77065
 2018-Nov-28 01:55     06 59 57.439615 +70 39 03.61044
 2018-Nov-28 01:56     06 59 57.566374 +70 39 04.45005
 2018-Nov-28 01:57     06 59 57.692935 +70 39 05.28950
 2018-Nov-28 01:58     06 59 57.819298 +70 39 06.12876
 2018-Nov-28 01:59     06 59 57.945462 +70 39 06.96785
 2018-Nov-28 02:00     06 59 58.071427 +70 39 07.80675
 2018-Nov-28 02:01     06 59 58.197195 +70 39 08.64546
 2018-Nov-28 02:02     06 59 58.322764 +70 39 09.48398
 2018-Nov-28 02:03     06 59 58.448136 +70 39 10.32230
 2018-Nov-28 02:04     06 59 58.573310 +70 39 11.16042
 2018-Nov-28 02:05     06 59 58.698286 +70 39 11.99834
 2018-Nov-28 02:06     06 59 58.823066 +70 39 12.83604
 2018-Nov-28 02:07     06 59 58.947648 +70 39 13.67354
 2018-Nov-28 02:08     06 59 59.072033 +70 39 14.51081
 2018-Nov-28 02:09     06 59 59.196221 +70 39 15.34787
 2018-Nov-28 02:10     06 59 59.320212 +70 39 16.18470
 2018-Nov-28 02:11     06 59 59.444008 +70 39 17.02130
 2018-Nov-28 02:12     06 59 59.567607 +70 39 17.85767
 2018-Nov-28 02:13     06 59 59.691009 +70 39 18.69380
 2018-Nov-28 02:14     06 59 59.814217 +70 39 19.52969
 2018-Nov-28 02:15     06 59 59.937228 +70 39 20.36533
 2018-Nov-28 02:16     07 00 00.060044 +70 39 21.20072
 2018-Nov-28 02:17     07 00 00.182665 +70 39 22.03587
 2018-Nov-28 02:18     07 00 00.305091 +70 39 22.87075
 2018-Nov-28 02:19     07 00 00.427321 +70 39 23.70537
 2018-Nov-28 02:20     07 00 00.549358 +70 39 24.53973
 2018-Nov-28 02:21     07 00 00.671200 +70 39 25.37382
 2018-Nov-28 02:22     07 00 00.792848 +70 39 26.20764
 2018-Nov-28 02:23     07 00 00.914302 +70 39 27.04117
 2018-Nov-28 02:24     07 00 01.035562 +70 39 27.87443
 2018-Nov-28 02:25     07 00 01.156629 +70 39 28.70740
 2018-Nov-28 02:26     07 00 01.277503 +70 39 29.54009
 2018-Nov-28 02:27     07 00 01.398184 +70 39 30.37248
 2018-Nov-28 02:28     07 00 01.518673 +70 39 31.20457
 2018-Nov-28 02:29     07 00 01.638968 +70 39 32.03637
 2018-Nov-28 02:30     07 00 01.759072 +70 39 32.86785
 2018-Nov-28 02:31     07 00 01.878984 +70 39 33.69903
 2018-Nov-28 02:32     07 00 01.998704 +70 39 34.52990
 2018-Nov-28 02:33     07 00 02.118233 +70 39 35.36045
 2018-Nov-28 02:34     07 00 02.237571 +70 39 36.19068
 2018-Nov-28 02:35     07 00 02.356718 +70 39 37.02059
 2018-Nov-28 02:36     07 00 02.475674 +70 39 37.85017
 2018-Nov-28 02:37     07 00 02.594441 +70 39 38.67942
 2018-Nov-28 02:38     07 00 02.713017 +70 39 39.50833
 2018-Nov-28 02:39     07 00 02.831404 +70 39 40.33690
 2018-Nov-28 02:40     07 00 02.949601 +70 39 41.16512
 2018-Nov-28 02:41     07 00 03.067609 +70 39 41.99300
 2018-Nov-28 02:42     07 00 03.185429 +70 39 42.82053
 2018-Nov-28 02:43     07 00 03.303060 +70 39 43.64770
 2018-Nov-28 02:44     07 00 03.420502 +70 39 44.47452
 2018-Nov-28 02:45     07 00 03.537758 +70 39 45.30097
 2018-Nov-28 02:46     07 00 03.654825 +70 39 46.12705
 2018-Nov-28 02:47     07 00 03.771705 +70 39 46.95277
 2018-Nov-28 02:48     07 00 03.888399 +70 39 47.77811
 2018-Nov-28 02:49     07 00 04.004906 +70 39 48.60307
 2018-Nov-28 02:50     07 00 04.121227 +70 39 49.42765
 2018-Nov-28 02:51     07 00 04.237361 +70 39 50.25184
 2018-Nov-28 02:52     07 00 04.353311 +70 39 51.07564
 2018-Nov-28 02:53     07 00 04.469075 +70 39 51.89905
 2018-Nov-28 02:54     07 00 04.584654 +70 39 52.72206
 2018-Nov-28 02:55     07 00 04.700049 +70 39 53.54468
 2018-Nov-28 02:56     07 00 04.815260 +70 39 54.36688
 2018-Nov-28 02:57     07 00 04.930286 +70 39 55.18868
 2018-Nov-28 02:58     07 00 05.045130 +70 39 56.01007
 2018-Nov-28 02:59     07 00 05.159790 +70 39 56.83104
 2018-Nov-28 03:00     07 00 05.274268 +70 39 57.65159
 2018-Nov-28 03:01     07 00 05.388563 +70 39 58.47172
 2018-Nov-28 03:02     07 00 05.502676 +70 39 59.29142
 2018-Nov-28 03:03     07 00 05.616608 +70 40 00.11069
 2018-Nov-28 03:04     07 00 05.730359 +70 40 00.92952
 2018-Nov-28 03:05     07 00 05.843929 +70 40 01.74792
 2018-Nov-28 03:06     07 00 05.957318 +70 40 02.56587
 2018-Nov-28 03:07     07 00 06.070527 +70 40 03.38338
 2018-Nov-28 03:08     07 00 06.183557 +70 40 04.20044
 2018-Nov-28 03:09     07 00 06.296407 +70 40 05.01705
 2018-Nov-28 03:10     07 00 06.409079 +70 40 05.83319
 2018-Nov-28 03:11     07 00 06.521572 +70 40 06.64888
 2018-Nov-28 03:12     07 00 06.633887 +70 40 07.46411
 2018-Nov-28 03:13     07 00 06.746025 +70 40 08.27887
 2018-Nov-28 03:14     07 00 06.857985 +70 40 09.09315
 2018-Nov-28 03:15     07 00 06.969768 +70 40 09.90697
 2018-Nov-28 03:16     07 00 07.081375 +70 40 10.72030
 2018-Nov-28 03:17     07 00 07.192807 +70 40 11.53315
 2018-Nov-28 03:18     07 00 07.304062 +70 40 12.34552
 2018-Nov-28 03:19     07 00 07.415143 +70 40 13.15739
 2018-Nov-28 03:20     07 00 07.526049 +70 40 13.96878
 2018-Nov-28 03:21     07 00 07.636781 +70 40 14.77967
 2018-Nov-28 03:22     07 00 07.747339 +70 40 15.59005
 2018-Nov-28 03:23     07 00 07.857723 +70 40 16.39994
 2018-Nov-28 03:24     07 00 07.967935 +70 40 17.20932
 2018-Nov-28 03:25     07 00 08.077975 +70 40 18.01818
 2018-Nov-28 03:26     07 00 08.187842 +70 40 18.82654
 2018-Nov-28 03:27     07 00 08.297538 +70 40 19.63437
 2018-Nov-28 03:28     07 00 08.407063 +70 40 20.44169
 2018-Nov-28 03:29     07 00 08.516417 +70 40 21.24848
 2018-Nov-28 03:30     07 00 08.625602 +70 40 22.05474
 2018-Nov-28 03:31     07 00 08.734616 +70 40 22.86047
 2018-Nov-28 03:32     07 00 08.843462 +70 40 23.66566
 2018-Nov-28 03:33     07 00 08.952139 +70 40 24.47032
 2018-Nov-28 03:34     07 00 09.060647 +70 40 25.27444
 2018-Nov-28 03:35     07 00 09.168988 +70 40 26.07801
 2018-Nov-28 03:36     07 00 09.277162 +70 40 26.88103
 2018-Nov-28 03:37     07 00 09.385169 +70 40 27.68350
 2018-Nov-28 03:38     07 00 09.493009 +70 40 28.48541
 2018-Nov-28 03:39     07 00 09.600684 +70 40 29.28677
 2018-Nov-28 03:40     07 00 09.708194 +70 40 30.08756
 2018-Nov-28 03:41     07 00 09.815539 +70 40 30.88779
